IRIDIUM 119             
1 42959U 17061E   25308.19299349  .00000016  00000+0 -12183-5 0  9995
2 42959  86.3940 119.3309 0002122  83.6474 276.4963 14.34217586422563
IRIDIUM 107             
1 42960U 17061F   25308.21203432  .00000119  00000+0  35544-4 0  9996
2 42960  86.3938 119.3429 0001904  78.1055 282.0354 14.34216859422576
IRIDIUM 132             
1 42961U 17061G   25308.00905768 -.00000017  00000+0 -13126-4 0  9996
2 42961  86.3940 119.4087 0001902  87.4855 272.6559 14.34217234422547
IRIDIUM 136             
1 42962U 17061H   25308.18030824 -.00000007  00000+0 -96800-5 0  9998
2 42962  86.3941 119.3428 0002002  85.0754 275.0671 14.34217318422580
IRIDIUM 139             
1 42963U 17061J   25308.18665075  .00000119  00000+0  35298-4 0  9996
2 42963  86.3944 119.3984 0001860  85.1181 275.0228 14.34217570422596
IRIDIUM 125             
1 42964U 17061K   25308.03442860 -.00000002  00000+0 -76278-5 0  9993
2 42964  86.3944 119.5191 0002075  73.9997 286.1427 14.34217479422589
IRIDIUM 135             
1 43070U 17083A   25308.28762960  .00000334  00000+0  11207-3 0  9994
2 43070  86.3976  56.0142 0002046  99.8186 260.3240 14.34217777411912
IRIDIUM 138             
1 43071U 17083B   25308.31300105 -.00000017  00000+0 -13214-4 0  9999
2 43071  86.3986  55.6643 0002293  88.7799 271.3660 14.34217349411908
